{"spkid": "20419880", "covariance": {"epoch": "2457545.5", "labels": ["e", "q", "tp", "node", "peri", "i"], "data": [["4.619288201700536E-16", "-1.149764372187937E-15", "-4.373814380463126E-14", "1.464911687690406E-13", "-1.792494859613014E-13", "1.650439479417817E-14"], ["-1.149764372187937E-15", "2.871715049160552E-15", "7.979545391232288E-14", "-3.640536312259192E-13", "4.392633260603688E-13", "-3.78959297009513E-14"], ["-4.373814380463126E-14", "7.979545391232288E-14", "1.333686688632596E-10", "-3.155464686411196E-11", "8.785100513675441E-11", "-1.828421988231774E-11"], ["1.464911687690406E-13", "-3.640536312259192E-13", "-3.155464686411196E-11", "1.678341707047158E-9", "-1.64420232360198E-9", "3.324834877920725E-10"], ["-1.792494859613014E-13", "4.392633260603688E-13", "8.785100513675441E-11", "-1.64420232360198E-9", "1.658505100302668E-9", "-3.32801687179401E-10"], ["1.650439479417817E-14", "-3.78959297009513E-14", "-1.828421988231774E-11", "3.324834877920725E-10", "-3.32801687179401E-10", "9.728373895468326E-11"]], "elements": [{"label": "e", "units": null, "title": "eccentricity", "value": ".671718731629755", "name": "e", "sigma": 2.14925294037266e-08}, {"label": "q", "value": ".8354274012995274", "title": "perihelion distance", "units": "au", "name": "q", "sigma": 5.35883853942303e-08}, {"value": "2456988.614665989361", "title": "time of perihelion passage", "units": "TDB", "sigma": 1.15485353557609e-05, "name": "tp", "label": "tp"}, {"units": "deg", "value": "102.1007723764128", "title": "longitude of the ascending node", "sigma": 4.09675689667712e-05, "name": "om", "label": "node"}, {"label": "peri", "value": "322.3680884645924", "title": "argument of perihelion", "units": "deg", "name": "w", "sigma": 4.07247480078474e-05}, {"sigma": 9.86325194622358e-06, "name": "i", "title": "inclination", "value": "9.654108010108956", "units": "deg", "label": "i"}]}, "elements": [{"name": "e", "sigma": "2.1645E-8", "units": null, "value": ".6718721826331433", "title": "eccentricity", "label": "e"}, {"label": "a", "units": "au", "value": "2.548312600875486", "title": "semi-major axis", "name": "a", "sigma": "9.7377E-9"}, {"name": "q", "sigma": "5.4078E-8", "units": "au", "title": "perihelion distance", "value": ".8361722516937311", "label": "q"}, {"label": "i", "sigma": "9.8758E-6", "name": "i", "value": "9.658927853351388", "title": "inclination; angle with respect to x-y ecliptic plane", "units": "deg"}, {"label": "node", "title": "longitude of the ascending node", "value": "102.0358440844591", "units": "deg", "name": "om", "sigma": "4.0892E-5"}, {"label": "peri", "units": "deg", "title": "argument of perihelion", "value": "322.4157528637119", "name": "w", "sigma": "4.0643E-5"}, {"label": "M", "sigma": "4.1088E-6", "name": "ma", "title": "mean anomaly", "value": "301.8800066075038", "units": "deg"}, {"label": "tp", "name": "tp", "sigma": "1.8225E-5", "value": "2461440.383587381269", "title": "time of perihelion passage", "units": "TDB"}, {"label": "period", "units": "d", "title": "sidereal orbital period", "value": "1485.858590417641", "name": "per", "sigma": "8.5167E-6"}, {"label": "n", "value": ".2422841596916785", "title": "mean motion", "units": "deg/d", "name": "n", "sigma": "1.3887E-9"}, {"title": "aphelion distance", "value": "4.260452950057241", "units": "au", "sigma": "1.628E-8", "name": "ad", "label": "Q"}], "epoch": "2461200.5"}